[
    {
        "Altitude(m)": 604234.5930341159,
        "Argument of Periapsis(deg)": 0.0,
        "Eccentricity": 0.0,
        "Inclination(deg)": 60.0,
        "Latitude(deg)": 14.117143405524903,
        "Longitude(deg)": -123.27265359747972,
        "Mean Anomaly(deg)": 163.63640000000004,
        "RAAN(deg)": 165.0,
        "Satellite Name": "Test1 736",
        "Satellite Number": 736,
        "Semi-Major Axis(m)": 6980739.136638005,
        "Time(s)": 0
    },
    {
        "Altitude(m)": 604223.4221043822,
        "Argument of Periapsis(deg)": 0.00010418945913296404,
        "Eccentricity": 0.0,
        "Inclination(deg)": 60.0,
        "Latitude(deg)": 13.582279386328532,
        "Longitude(deg)": -122.98574528291704,
        "Mean Anomaly(deg)": 164.25650614546183,
        "RAAN(deg)": 164.99957995086024,
        "Satellite Name": "Test1 736",
        "Satellite Number": 736,
        "Semi-Major Axis(m)": 6980739.136638005,
        "Time(s)": 10
    }
]